[{"OBJECT_NAME":"STELLA","OBJECT_ID":"1993-061B","EPOCH":"2026-03-09T22:50:14.153280","MEAN_MOTION":14.2746756,"ECCENTRICITY":0.00067535,"INCLINATION":98.784,"RA_OF_ASC_NODE":132.7988,"ARG_OF_PERICENTER":156.9855,"MEAN_ANOMALY":327.7404,"EPHEMERIS_TYPE":0,"CLASSIFICATION_TYPE":"U","NORAD_CAT_ID":22824,"ELEMENT_SET_NO":999,"REV_AT_EPOCH":69061,"BSTAR":7.617075e-6,"MEAN_MOTION_DOT":-2.6e-7,"MEAN_MOTION_DDOT":0},{"OBJECT_NAME":"CZ-6A DEB","OBJECT_ID":"2024-140KR","EPOCH":"2026-03-09T14:09:36.326592","MEAN_MOTION":14.16882342,"ECCENTRICITY":0.0061119,"INCLINATION":89.0093,"RA_OF_ASC_NODE":287.1517,"ARG_OF_PERICENTER":151.0128,"MEAN_ANOMALY":209.4478,"EPHEMERIS_TYPE":0,"CLASSIFICATION_TYPE":"U","NORAD_CAT_ID":60886,"ELEMENT_SET_NO":999,"REV_AT_EPOCH":8031,"BSTAR":0.00046855,"MEAN_MOTION_DOT":9.71e-6,"MEAN_MOTION_DDOT":0}]
